SL-8 R/B                
1 11574U 79089B   26119.09990668  .00000221  00000+0  74858-4 0  9997
2 11574  74.0707 357.7293 0015519 160.5759 199.5992 14.42380697443374
SL-14 R/B               
1 11672U 80005B   26119.19634027  .00000595  00000+0  57612-4 0  9994
2 11672  82.5129 259.3094 0015612   0.6857 359.4381 14.90985605484016
SL-8 R/B                
1 12139U 81003B   26119.29532218  .00012658  00000+0  31533-3 0  9998
2 12139  82.9370 243.1481 0255090   2.8111 357.4480 15.12931832322322
SL-3 R/B                
1 12465U 81046B   26119.24980825  .00011377  00000+0  25415-3 0  9992
2 12465  81.2318 228.9686 0018590 200.9045 159.1441 15.43195346446221
SL-3 R/B                
1 12904U 81103B   26119.27457587  .00003502  00000+0  15242-3 0  9999
2 12904  81.1576 154.0781 0014350 114.8739 245.3987 15.21881052980927
SL-3 R/B                
1 13068U 82013B   26119.26354309  .00004187  00000+0  17879-3 0  9997
2 13068  81.1712 101.4638 0022316  13.0599 347.1206 15.22429159412048
SL-3 R/B                
1 13154U 82039B   26119.27652426  .00001762  00000+0  10509-3 0  9992
2 13154  81.1470 157.6041 0028757 152.0875 208.1901 15.10313394389278
SL-3 R/B                
1 13403U 82079B   26119.31735459  .00005241  00000+0  20520-3 0  9996
2 13403  81.1436 133.2726 0023899 358.2019   1.9124 15.25350127385418
SL-14 R/B               
1 13553U 82092B   26119.18039865  .00000501  00000+0  53329-4 0  9998
2 13553  82.5655  94.1544 0021532 130.7191 240.0517 14.86708437336438
SL-3 R/B                
1 13819U 83010B   26119.01341565  .00013365  00000+0  25545-3 0  9999
2 13819  81.1006 300.4664 0015312 229.5396 130.4516 15.47830323365720
SL-3 R/B                
1 14208U 83075B   26119.27182620  .00009918  00000+0  25235-3 0  9991
2 14208  97.6120 125.8108 0022525  52.5214 307.8075 15.39544943337934
COSMOS 1536             
1 14699U 84013A   26119.20590104  .00006213  00000+0  25056-3 0  9997
2 14699  82.5457  57.5995 0016240 102.8691 257.4362 15.24498317280319
SL-14 R/B               
1 14820U 84027B   26119.26273280  .00000421  00000+0  45215-4 0  9992
2 14820  82.5442 197.5916 0018490 161.4603 198.7291 14.86025205255140
SL-8 R/B                
1 15483U 85006B   26119.24404312  .00000234  00000+0  86146-4 0  9996
2 15483  74.0448 168.1271 0017211  68.6643   4.5452 14.37813413161295
SL-12 R/B(2)            
1 15772U 85042D   26119.07118517  .00000022  00000+0  31393-4 0  9996
2 15772  71.1093 341.2886 0033591  44.8220  65.9843 14.21995911121559
SL-14 R/B               
1 15945U 85069B   26119.09736725  .00000430  00000+0  45689-4 0  9992
2 15945  82.5271 337.5430 0019533  29.5670 330.6647 14.86479742180321
SL-16 R/B               
1 16182U 85097B   26119.20997302 -.00000161  00000+0 -56764-4 0  9999
2 16182  71.0047  34.1906 0007888 196.4265 315.8160 14.16605323 94385
