[{"OBJECT_NAME":"SL-8 R/B","OBJECT_ID":"1979-089B","EPOCH":"2026-04-29T02:23:51.937152","MEAN_MOTION":14.42380697,"ECCENTRICITY":0.00155192,"INCLINATION":74.0707,"RA_OF_ASC_NODE":357.7293,"ARG_OF_PERICENTER":160.5759,"MEAN_ANOMALY":199.5992,"EPHEMERIS_TYPE":0,"CLASSIFICATION_TYPE":"U","NORAD_CAT_ID":11574,"ELEMENT_SET_NO":999,"REV_AT_EPOCH":44337,"BSTAR":7.4858333e-5,"MEAN_MOTION_DOT":2.21e-6,"MEAN_MOTION_DDOT":0},{"OBJECT_NAME":"SL-14 R/B","OBJECT_ID":"1980-005B","EPOCH":"2026-04-29T04:42:43.799328","MEAN_MOTION":14.90985605,"ECCENTRICITY":0.00156128,"INCLINATION":82.5129,"RA_OF_ASC_NODE":259.3094,"ARG_OF_PERICENTER":0.6857,"MEAN_ANOMALY":359.4381,"EPHEMERIS_TYPE":0,"CLASSIFICATION_TYPE":"U","NORAD_CAT_ID":11672,"ELEMENT_SET_NO":999,"REV_AT_EPOCH":48401,"BSTAR":5.7611716e-5,"MEAN_MOTION_DOT":5.95e-6,"MEAN_MOTION_DDOT":0},{"OBJECT_NAME":"SL-8 R/B","OBJECT_ID":"1981-003B","EPOCH":"2026-04-29T07:05:15.836352","MEAN_MOTION":15.12931832,"ECCENTRICITY":0.02550907,"INCLINATION":82.937,"RA_OF_ASC_NODE":243.1481,"ARG_OF_PERICENTER":2.8111,"MEAN_ANOMALY":357.448,"EPHEMERIS_TYPE":0,"CLASSIFICATION_TYPE":"U","NORAD_CAT_ID":12139,"ELEMENT_SET_NO":999,"REV_AT_EPOCH":32232,"BSTAR":0.00031533173,"MEAN_MOTION_DOT":0.00012658,"MEAN_MOTION_DDOT":0},{"OBJECT_NAME":"SL-3 R/B","OBJECT_ID":"1981-046B","EPOCH":"2026-04-29T05:59:43.432800","MEAN_MOTION":15.43195346,"ECCENTRICITY":0.00185906,"INCLINATION":81.2318,"RA_OF_ASC_NODE":228.9686,"ARG_OF_PERICENTER":200.9045,"MEAN_ANOMALY":159.1441,"EPHEMERIS_TYPE":0,"CLASSIFICATION_TYPE":"U","NORAD_CAT_ID":12465,"ELEMENT_SET_NO":999,"REV_AT_EPOCH":44622,"BSTAR":0.0002541492,"MEAN_MOTION_DOT":0.00011377,"MEAN_MOTION_DDOT":0},{"OBJECT_NAME":"SL-3 R/B","OBJECT_ID":"1981-103B","EPOCH":"2026-04-29T06:35:23.355168","MEAN_MOTION":15.21881052,"ECCENTRICITY":0.00143508,"INCLINATION":81.1576,"RA_OF_ASC_NODE":154.0781,"ARG_OF_PERICENTER":114.8739,"MEAN_ANOMALY":245.3987,"EPHEMERIS_TYPE":0,"CLASSIFICATION_TYPE":"U","NORAD_CAT_ID":12904,"ELEMENT_SET_NO":999,"REV_AT_EPOCH":98092,"BSTAR":0.00015241919,"MEAN_MOTION_DOT":3.502e-5,"MEAN_MOTION_DDOT":0},{"OBJECT_NAME":"SL-3 R/B","OBJECT_ID":"1982-013B","EPOCH":"2026-04-29T06:19:30.122976","MEAN_MOTION":15.22429159,"ECCENTRICITY":0.00223167,"INCLINATION":81.1712,"RA_OF_ASC_NODE":101.4638,"ARG_OF_PERICENTER":13.0599,"MEAN_ANOMALY":347.1206,"EPHEMERIS_TYPE":0,"CLASSIFICATION_TYPE":"U","NORAD_CAT_ID":13068,"ELEMENT_SET_NO":999,"REV_AT_EPOCH":41204,"BSTAR":0.00017879343,"MEAN_MOTION_DOT":4.187e-5,"MEAN_MOTION_DDOT":0},{"OBJECT_NAME":"SL-3 R/B","OBJECT_ID":"1982-039B","EPOCH":"2026-04-29T06:38:11.696064","MEAN_MOTION":15.10313394,"ECCENTRICITY":0.00287571,"INCLINATION":81.147,"RA_OF_ASC_NODE":157.6041,"ARG_OF_PERICENTER":152.0875,"MEAN_ANOMALY":208.1901,"EPHEMERIS_TYPE":0,"CLASSIFICATION_TYPE":"U","NORAD_CAT_ID":13154,"ELEMENT_SET_NO":999,"REV_AT_EPOCH":38927,"BSTAR":0.0001050949,"MEAN_MOTION_DOT":1.762e-5,"MEAN_MOTION_DDOT":0},{"OBJECT_NAME":"SL-3 R/B","OBJECT_ID":"1982-079B","EPOCH":"2026-04-29T07:36:59.436576","MEAN_MOTION":15.25350127,"ECCENTRICITY":0.00238995,"INCLINATION":81.1436,"RA_OF_ASC_NODE":133.2726,"ARG_OF_PERICENTER":358.2019,"MEAN_ANOMALY":1.9124,"EPHEMERIS_TYPE":0,"CLASSIFICATION_TYPE":"U","NORAD_CAT_ID":13403,"ELEMENT_SET_NO":999,"REV_AT_EPOCH":38541,"BSTAR":0.00020519716,"MEAN_MOTION_DOT":5.241e-5,"MEAN_MOTION_DDOT":0},{"OBJECT_NAME":"SL-14 R/B","OBJECT_ID":"1982-092B","EPOCH":"2026-04-29T04:19:46.443360","MEAN_MOTION":14.86708437,"ECCENTRICITY":0.00215329,"INCLINATION":82.5655,"RA_OF_ASC_NODE":94.1544,"ARG_OF_PERICENTER":130.7191,"MEAN_ANOMALY":240.0517,"EPHEMERIS_TYPE":0,"CLASSIFICATION_TYPE":"U","NORAD_CAT_ID":13553,"ELEMENT_SET_NO":999,"REV_AT_EPOCH":33643,"BSTAR":5.3328803e-5,"MEAN_MOTION_DOT":5.01e-6,"MEAN_MOTION_DDOT":0},{"OBJECT_NAME":"SL-3 R/B","OBJECT_ID":"1983-010B","EPOCH":"2026-04-29T00:19:19.112160","MEAN_MOTION":15.47830323,"ECCENTRICITY":0.00153124,"INCLINATION":81.1006,"RA_OF_ASC_NODE":300.4664,"ARG_OF_PERICENTER":229.5396,"MEAN_ANOMALY":130.4516,"EPHEMERIS_TYPE":0,"CLASSIFICATION_TYPE":"U","NORAD_CAT_ID":13819,"ELEMENT_SET_NO":999,"REV_AT_EPOCH":36572,"BSTAR":0.00025544969,"MEAN_MOTION_DOT":0.00013365,"MEAN_MOTION_DDOT":0},{"OBJECT_NAME":"SL-3 R/B","OBJECT_ID":"1983-075B","EPOCH":"2026-04-29T06:31:25.783680","MEAN_MOTION":15.39544943,"ECCENTRICITY":0.00225258,"INCLINATION":97.612,"RA_OF_ASC_NODE":125.8108,"ARG_OF_PERICENTER":52.5214,"MEAN_ANOMALY":307.8075,"EPHEMERIS_TYPE":0,"CLASSIFICATION_TYPE":"U","NORAD_CAT_ID":14208,"ELEMENT_SET_NO":999,"REV_AT_EPOCH":33793,"BSTAR":0.00025234947,"MEAN_MOTION_DOT":9.918e-5,"MEAN_MOTION_DDOT":0},{"OBJECT_NAME":"COSMOS 1536","OBJECT_ID":"1984-013A","EPOCH":"2026-04-29T04:56:29.849856","MEAN_MOTION":15.24498317,"ECCENTRICITY":0.00162405,"INCLINATION":82.5457,"RA_OF_ASC_NODE":57.5995,"ARG_OF_PERICENTER":102.8691,"MEAN_ANOMALY":257.4362,"EPHEMERIS_TYPE":0,"CLASSIFICATION_TYPE":"U","NORAD_CAT_ID":14699,"ELEMENT_SET_NO":999,"REV_AT_EPOCH":28031,"BSTAR":0.00025055788,"MEAN_MOTION_DOT":6.213e-5,"MEAN_MOTION_DDOT":0},{"OBJECT_NAME":"SL-14 R/B","OBJECT_ID":"1984-027B","EPOCH":"2026-04-29T06:18:20.113920","MEAN_MOTION":14.86025205,"ECCENTRICITY":0.00184906,"INCLINATION":82.5442,"RA_OF_ASC_NODE":197.5916,"ARG_OF_PERICENTER":161.4603,"MEAN_ANOMALY":198.7291,"EPHEMERIS_TYPE":0,"CLASSIFICATION_TYPE":"U","NORAD_CAT_ID":14820,"ELEMENT_SET_NO":999,"REV_AT_EPOCH":25514,"BSTAR":4.5214884e-5,"MEAN_MOTION_DOT":4.21e-6,"MEAN_MOTION_DDOT":0},{"OBJECT_NAME":"SL-8 R/B","OBJECT_ID":"1985-006B","EPOCH":"2026-04-29T05:51:25.325568","MEAN_MOTION":14.37813413,"ECCENTRICITY":0.0017211,"INCLINATION":74.0448,"RA_OF_ASC_NODE":168.1271,"ARG_OF_PERICENTER":68.6643,"MEAN_ANOMALY":4.5452,"EPHEMERIS_TYPE":0,"CLASSIFICATION_TYPE":"U","NORAD_CAT_ID":15483,"ELEMENT_SET_NO":999,"REV_AT_EPOCH":16129,"BSTAR":8.6145699e-5,"MEAN_MOTION_DOT":2.34e-6,"MEAN_MOTION_DDOT":0},{"OBJECT_NAME":"SL-12 R/B(2)","OBJECT_ID":"1985-042D","EPOCH":"2026-04-29T01:42:30.398688","MEAN_MOTION":14.21995911,"ECCENTRICITY":0.00335919,"INCLINATION":71.1093,"RA_OF_ASC_NODE":341.2886,"ARG_OF_PERICENTER":44.822,"MEAN_ANOMALY":65.9843,"EPHEMERIS_TYPE":0,"CLASSIFICATION_TYPE":"U","NORAD_CAT_ID":15772,"ELEMENT_SET_NO":999,"REV_AT_EPOCH":12155,"BSTAR":3.1393456e-5,"MEAN_MOTION_DOT":2.2e-7,"MEAN_MOTION_DDOT":0},{"OBJECT_NAME":"SL-14 R/B","OBJECT_ID":"1985-069B","EPOCH":"2026-04-29T02:20:12.530400","MEAN_MOTION":14.86479742,"ECCENTRICITY":0.00195331,"INCLINATION":82.5271,"RA_OF_ASC_NODE":337.543,"ARG_OF_PERICENTER":29.567,"MEAN_ANOMALY":330.6647,"EPHEMERIS_TYPE":0,"CLASSIFICATION_TYPE":"U","NORAD_CAT_ID":15945,"ELEMENT_SET_NO":999,"REV_AT_EPOCH":18032,"BSTAR":4.5688545e-5,"MEAN_MOTION_DOT":4.3e-6,"MEAN_MOTION_DDOT":0},{"OBJECT_NAME":"SL-16 R/B","OBJECT_ID":"1985-097B","EPOCH":"2026-04-29T05:02:21.668928","MEAN_MOTION":14.16605323,"ECCENTRICITY":0.00078883,"INCLINATION":71.0047,"RA_OF_ASC_NODE":34.1906,"ARG_OF_PERICENTER":196.4265,"MEAN_ANOMALY":315.816,"EPHEMERIS_TYPE":0,"CLASSIFICATION_TYPE":"U","NORAD_CAT_ID":16182,"ELEMENT_SET_NO":999,"REV_AT_EPOCH":9438,"BSTAR":-5.676393e-5,"MEAN_MOTION_DOT":-1.61e-6,"MEAN_MOTION_DDOT":0}]
